[{"OBJECT_NAME":"NINGXIA-1 9","OBJECT_ID":"2021-064D","EPOCH":"2026-03-09T22:22:33.329280","MEAN_MOTION":14.08541534,"ECCENTRICITY":0.00078366,"INCLINATION":45.0035,"RA_OF_ASC_NODE":315.3923,"ARG_OF_PERICENTER":140.8679,"MEAN_ANOMALY":219.2725,"EPHEMERIS_TYPE":0,"CLASSIFICATION_TYPE":"U","NORAD_CAT_ID":49021,"ELEMENT_SET_NO":999,"REV_AT_EPOCH":24023,"BSTAR":1.224568e-5,"MEAN_MOTION_DOT":-1.11e-6,"MEAN_MOTION_DDOT":0},{"OBJECT_NAME":"SL-8 DEB","OBJECT_ID":"1972-062D","EPOCH":"2026-03-09T10:12:57.977856","MEAN_MOTION":14.07719126,"ECCENTRICITY":0.00653822,"INCLINATION":82.9724,"RA_OF_ASC_NODE":239.8773,"ARG_OF_PERICENTER":232.8073,"MEAN_ANOMALY":126.7123,"EPHEMERIS_TYPE":0,"CLASSIFICATION_TYPE":"U","NORAD_CAT_ID":7560,"ELEMENT_SET_NO":999,"REV_AT_EPOCH":62555,"BSTAR":0.0002316777,"MEAN_MOTION_DOT":4.15e-6,"MEAN_MOTION_DDOT":0}]
